GLOBALSTAR M063         
1 26081U 00008A   26073.84873457 -.00000069  00000+0  20662-3 0  9993
2 26081  51.9938 118.7384 0004962 114.7040  56.5222 11.86181502189692
GLOBALSTAR M062         
1 26082U 00008B   26074.15799943 -.00000034  00000+0  45900-3 0  9990
2 26082  51.9878  18.9245 0007369 334.9301  39.0052 12.43482173530333
GLOBALSTAR M060         
1 26083U 00008C   26074.10081660 -.00000157  00000+0 -65706-3 0  9999
2 26083  52.0052  17.4313 0003101 325.7031  48.3096 12.17674733185375
GLOBALSTAR M064         
1 26084U 00008D   26074.11130312 -.00000098  00000+0 -21171-3 0  9992
2 26084  52.0021 213.6821 0001544 185.4699 174.6117 11.88542530199318
GLOBALSTAR M065         
1 31571U 07020A   26073.87600206 -.00000087  00000+0  94846-4 0  9993
2 31571  51.9881 122.3642 0010005 185.9594 345.5211 12.62021273867589
GLOBALSTAR M069         
1 31573U 07020C   26073.93819193 -.00000106  00000+0 -12597-3 0  9994
2 31573  52.0026 158.8879 0001150 314.8885 216.4499 12.23468903867268
GLOBALSTAR M072         
1 31574U 07020D   26074.01202062 -.00000073  00000+0  14626-3 0  9993
2 31574  51.9968 350.9671 0001524 109.1583 264.9550 11.91656089863756
GLOBALSTAR M071         
1 31576U 07020F   26074.07012815 -.00000037  00000+0  53397-3 0  9994
2 31576  52.0053 191.7670 0000087 219.2005 311.9066 12.18266941527958
GLOBALSTAR M067         
1 32263U 07048A   26074.01260168 -.00000077  00000+0  15465-3 0  9996
2 32263  51.9748 323.4651 0000961 157.9087 215.2433 12.40685183843103
GLOBALSTAR M070         
1 32264U 07048B   26074.15877412 -.00000101  00000+0  17396-4 0  9992
2 32264  51.9775  23.0011 0000673  60.4602 312.7059 12.62331492847890
GLOBALSTAR M066         
1 32265U 07048C   26073.92705362 -.00000088  00000+0  57628-4 0  9997
2 32265  51.9613 328.5094 0004296 196.7764 244.4949 12.30386797848627
GLOBALSTAR M068         
1 32266U 07048D   26074.10054651 -.00000113  00000+0 -49023-4 0  9997
2 32266  51.9879 196.4077 0001153  54.3585 116.8495 12.62842159851787
GLOBALSTAR M079         
1 37188U 10054A   26074.13426221 -.00000101  00000+0  17684-4 0  9999
2 37188  52.0060  34.9789 0000543 106.7114 267.2508 12.62263942710672
GLOBALSTAR M074         
1 37189U 10054B   26074.16050910 -.00000110  00000+0 -35892-4 0  9993
2 37189  52.0037  34.1799 0000245  74.9266 297.7352 12.62266342711283
GLOBALSTAR M076         
1 37190U 10054C   26074.20705912 -.00000098  00000+0  34898-4 0  9998
2 37190  52.0050  34.2327 0000307 122.7313 341.7559 12.62270639711005
GLOBALSTAR M077         
1 37191U 10054D   26073.95082557 -.00000093  00000+0 -27251-3 0  9993
2 37191  51.9988  58.5609 0000821 147.9377 226.5857 11.68156517710133
