[{"OBJECT_NAME":"GLOBALSTAR M063","OBJECT_ID":"2000-008A","EPOCH":"2026-03-14T20:22:10.666848","MEAN_MOTION":11.86181502,"ECCENTRICITY":0.00049629,"INCLINATION":51.9938,"RA_OF_ASC_NODE":118.7384,"ARG_OF_PERICENTER":114.704,"MEAN_ANOMALY":56.5222,"EPHEMERIS_TYPE":0,"CLASSIFICATION_TYPE":"U","NORAD_CAT_ID":26081,"ELEMENT_SET_NO":999,"REV_AT_EPOCH":18969,"BSTAR":0.00020661737,"MEAN_MOTION_DOT":-6.9e-7,"MEAN_MOTION_DDOT":0},{"OBJECT_NAME":"GLOBALSTAR M062","OBJECT_ID":"2000-008B","EPOCH":"2026-03-15T03:47:31.150752","MEAN_MOTION":12.43482173,"ECCENTRICITY":0.00073694,"INCLINATION":51.9878,"RA_OF_ASC_NODE":18.9245,"ARG_OF_PERICENTER":334.9301,"MEAN_ANOMALY":39.0052,"EPHEMERIS_TYPE":0,"CLASSIFICATION_TYPE":"U","NORAD_CAT_ID":26082,"ELEMENT_SET_NO":999,"REV_AT_EPOCH":53033,"BSTAR":0.00045899856,"MEAN_MOTION_DOT":-3.4e-7,"MEAN_MOTION_DDOT":0},{"OBJECT_NAME":"GLOBALSTAR M060","OBJECT_ID":"2000-008C","EPOCH":"2026-03-15T02:25:10.554240","MEAN_MOTION":12.17674733,"ECCENTRICITY":0.00031011,"INCLINATION":52.0052,"RA_OF_ASC_NODE":17.4313,"ARG_OF_PERICENTER":325.7031,"MEAN_ANOMALY":48.3096,"EPHEMERIS_TYPE":0,"CLASSIFICATION_TYPE":"U","NORAD_CAT_ID":26083,"ELEMENT_SET_NO":999,"REV_AT_EPOCH":18537,"BSTAR":-0.00065705912,"MEAN_MOTION_DOT":-1.57e-6,"MEAN_MOTION_DDOT":0},{"OBJECT_NAME":"GLOBALSTAR M064","OBJECT_ID":"2000-008D","EPOCH":"2026-03-15T02:40:16.589568","MEAN_MOTION":11.8854253,"ECCENTRICITY":0.00015445,"INCLINATION":52.0021,"RA_OF_ASC_NODE":213.6821,"ARG_OF_PERICENTER":185.4699,"MEAN_ANOMALY":174.6117,"EPHEMERIS_TYPE":0,"CLASSIFICATION_TYPE":"U","NORAD_CAT_ID":26084,"ELEMENT_SET_NO":999,"REV_AT_EPOCH":19931,"BSTAR":-0.00021170741,"MEAN_MOTION_DOT":-9.8e-7,"MEAN_MOTION_DDOT":0},{"OBJECT_NAME":"GLOBALSTAR M065","OBJECT_ID":"2007-020A","EPOCH":"2026-03-14T21:01:26.577984","MEAN_MOTION":12.62021273,"ECCENTRICITY":0.00100055,"INCLINATION":51.9881,"RA_OF_ASC_NODE":122.3642,"ARG_OF_PERICENTER":185.9594,"MEAN_ANOMALY":345.5211,"EPHEMERIS_TYPE":0,"CLASSIFICATION_TYPE":"U","NORAD_CAT_ID":31571,"ELEMENT_SET_NO":999,"REV_AT_EPOCH":86758,"BSTAR":9.4845513e-5,"MEAN_MOTION_DOT":-8.7e-7,"MEAN_MOTION_DDOT":0},{"OBJECT_NAME":"GLOBALSTAR M069","OBJECT_ID":"2007-020C","EPOCH":"2026-03-14T22:30:59.782752","MEAN_MOTION":12.23468903,"ECCENTRICITY":0.00011501,"INCLINATION":52.0026,"RA_OF_ASC_NODE":158.8879,"ARG_OF_PERICENTER":314.8885,"MEAN_ANOMALY":216.4499,"EPHEMERIS_TYPE":0,"CLASSIFICATION_TYPE":"U","NORAD_CAT_ID":31573,"ELEMENT_SET_NO":999,"REV_AT_EPOCH":86726,"BSTAR":-0.00012597347,"MEAN_MOTION_DOT":-1.06e-6,"MEAN_MOTION_DDOT":0},{"OBJECT_NAME":"GLOBALSTAR M072","OBJECT_ID":"2007-020D","EPOCH":"2026-03-15T00:17:18.581568","MEAN_MOTION":11.91656089,"ECCENTRICITY":0.00015246,"INCLINATION":51.9968,"RA_OF_ASC_NODE":350.9671,"ARG_OF_PERICENTER":109.1583,"MEAN_ANOMALY":264.955,"EPHEMERIS_TYPE":0,"CLASSIFICATION_TYPE":"U","NORAD_CAT_ID":31574,"ELEMENT_SET_NO":999,"REV_AT_EPOCH":86375,"BSTAR":0.00014625503,"MEAN_MOTION_DOT":-7.3e-7,"MEAN_MOTION_DDOT":0},{"OBJECT_NAME":"GLOBALSTAR M071","OBJECT_ID":"2007-020F","EPOCH":"2026-03-15T01:40:59.072160","MEAN_MOTION":12.18266941,"ECCENTRICITY":8.7e-6,"INCLINATION":52.0053,"RA_OF_ASC_NODE":191.767,"ARG_OF_PERICENTER":219.2005,"MEAN_ANOMALY":311.9066,"EPHEMERIS_TYPE":0,"CLASSIFICATION_TYPE":"U","NORAD_CAT_ID":31576,"ELEMENT_SET_NO":999,"REV_AT_EPOCH":52795,"BSTAR":0.00053397334,"MEAN_MOTION_DOT":-3.7e-7,"MEAN_MOTION_DDOT":0},{"OBJECT_NAME":"GLOBALSTAR M067","OBJECT_ID":"2007-048A","EPOCH":"2026-03-15T00:18:08.785152","MEAN_MOTION":12.40685183,"ECCENTRICITY":9.616e-5,"INCLINATION":51.9748,"RA_OF_ASC_NODE":323.4651,"ARG_OF_PERICENTER":157.9087,"MEAN_ANOMALY":215.2433,"EPHEMERIS_TYPE":0,"CLASSIFICATION_TYPE":"U","NORAD_CAT_ID":32263,"ELEMENT_SET_NO":999,"REV_AT_EPOCH":84310,"BSTAR":0.00015465174,"MEAN_MOTION_DOT":-7.7e-7,"MEAN_MOTION_DDOT":0},{"OBJECT_NAME":"GLOBALSTAR M070","OBJECT_ID":"2007-048B","EPOCH":"2026-03-15T03:48:38.083968","MEAN_MOTION":12.62331492,"ECCENTRICITY":6.739e-5,"INCLINATION":51.9775,"RA_OF_ASC_NODE":23.0011,"ARG_OF_PERICENTER":60.4602,"MEAN_ANOMALY":312.7059,"EPHEMERIS_TYPE":0,"CLASSIFICATION_TYPE":"U","NORAD_CAT_ID":32264,"ELEMENT_SET_NO":999,"REV_AT_EPOCH":84789,"BSTAR":1.739592e-5,"MEAN_MOTION_DOT":-1.01e-6,"MEAN_MOTION_DDOT":0},{"OBJECT_NAME":"GLOBALSTAR M066","OBJECT_ID":"2007-048C","EPOCH":"2026-03-14T22:14:57.432768","MEAN_MOTION":12.30386797,"ECCENTRICITY":0.00042968,"INCLINATION":51.9613,"RA_OF_ASC_NODE":328.5094,"ARG_OF_PERICENTER":196.7764,"MEAN_ANOMALY":244.4949,"EPHEMERIS_TYPE":0,"CLASSIFICATION_TYPE":"U","NORAD_CAT_ID":32265,"ELEMENT_SET_NO":999,"REV_AT_EPOCH":84862,"BSTAR":5.7628437e-5,"MEAN_MOTION_DOT":-8.8e-7,"MEAN_MOTION_DDOT":0},{"OBJECT_NAME":"GLOBALSTAR M068","OBJECT_ID":"2007-048D","EPOCH":"2026-03-15T02:24:47.218464","MEAN_MOTION":12.62842159,"ECCENTRICITY":0.00011538,"INCLINATION":51.9879,"RA_OF_ASC_NODE":196.4077,"ARG_OF_PERICENTER":54.3585,"MEAN_ANOMALY":116.8495,"EPHEMERIS_TYPE":0,"CLASSIFICATION_TYPE":"U","NORAD_CAT_ID":32266,"ELEMENT_SET_NO":999,"REV_AT_EPOCH":85178,"BSTAR":-4.9023339e-5,"MEAN_MOTION_DOT":-1.13e-6,"MEAN_MOTION_DDOT":0},{"OBJECT_NAME":"GLOBALSTAR M079","OBJECT_ID":"2010-054A","EPOCH":"2026-03-15T03:13:20.254944","MEAN_MOTION":12.62263942,"ECCENTRICITY":5.439e-5,"INCLINATION":52.006,"RA_OF_ASC_NODE":34.9789,"ARG_OF_PERICENTER":106.7114,"MEAN_ANOMALY":267.2508,"EPHEMERIS_TYPE":0,"CLASSIFICATION_TYPE":"U","NORAD_CAT_ID":37188,"ELEMENT_SET_NO":999,"REV_AT_EPOCH":71067,"BSTAR":1.7683528e-5,"MEAN_MOTION_DOT":-1.01e-6,"MEAN_MOTION_DDOT":0},{"OBJECT_NAME":"GLOBALSTAR M074","OBJECT_ID":"2010-054B","EPOCH":"2026-03-15T03:51:07.986240","MEAN_MOTION":12.62266342,"ECCENTRICITY":2.451e-5,"INCLINATION":52.0037,"RA_OF_ASC_NODE":34.1799,"ARG_OF_PERICENTER":74.9266,"MEAN_ANOMALY":297.7352,"EPHEMERIS_TYPE":0,"CLASSIFICATION_TYPE":"U","NORAD_CAT_ID":37189,"ELEMENT_SET_NO":999,"REV_AT_EPOCH":71128,"BSTAR":-3.5892328e-5,"MEAN_MOTION_DOT":-1.1e-6,"MEAN_MOTION_DDOT":0},{"OBJECT_NAME":"GLOBALSTAR M076","OBJECT_ID":"2010-054C","EPOCH":"2026-03-15T04:58:09.907968","MEAN_MOTION":12.62270639,"ECCENTRICITY":3.079e-5,"INCLINATION":52.005,"RA_OF_ASC_NODE":34.2327,"ARG_OF_PERICENTER":122.7313,"MEAN_ANOMALY":341.7559,"EPHEMERIS_TYPE":0,"CLASSIFICATION_TYPE":"U","NORAD_CAT_ID":37190,"ELEMENT_SET_NO":999,"REV_AT_EPOCH":71100,"BSTAR":3.4897562e-5,"MEAN_MOTION_DOT":-9.8e-7,"MEAN_MOTION_DDOT":0},{"OBJECT_NAME":"GLOBALSTAR M077","OBJECT_ID":"2010-054D","EPOCH":"2026-03-14T22:49:11.329248","MEAN_MOTION":11.68156517,"ECCENTRICITY":8.21e-5,"INCLINATION":51.9988,"RA_OF_ASC_NODE":58.5609,"ARG_OF_PERICENTER":147.9377,"MEAN_ANOMALY":226.5857,"EPHEMERIS_TYPE":0,"CLASSIFICATION_TYPE":"U","NORAD_CAT_ID":37191,"ELEMENT_SET_NO":999,"REV_AT_EPOCH":71013,"BSTAR":-0.0002725119,"MEAN_MOTION_DOT":-9.3e-7,"MEAN_MOTION_DDOT":0}]
